[Satellite]
VERSION=1.1
NAME=SES-9
NICKNAME=SES-9
TLE1=1 41380U 16013A   17185.91280629 -.00000350  00000-0  00000-0 0  9995
TLE2=2 41380   0.0301 309.8586 0001780 144.6489 265.5051  1.00270267  4725
